NORAD_CAT_ID,OBJECT_NAME,OBJECT_TYPE,EPOCH,MEAN_MOTION,ECCENTRICITY,INCLINATION,RA_OF_ASC_NODE,ARG_OF_PERICENTER,MEAN_ANOMALY,BSTAR,MEAN_MOTION_DOT,MEAN_MOTION_DDOT,TLE_LINE0,TLE_LINE1,TLE_LINE2,SEMIMAJOR_AXIS,PERIOD,APOGEE,PERIGEE,DECAYED
53015.0,STARLINK-4262,PAYLOAD,2023-09-27 09:06:22,15.08828004,0.0001766,53.2161,138.8342,91.012,269.1075,-1.5259e-05,-5.31e-06,0.0,0 STARLINK-4262,1 53015U 22076AF  23270.37942831 -.00000531  00000-0 -15259-4 0  9999,2 53015  53.2161 138.8342 0001766  91.0120 269.1075 15.08828004 67971,6917.917,95.438,541.004,538.56,0.0
53015.0,STARLINK-4262,PAYLOAD,2023-09-28 01:00:14,15.08832705,0.0001909,53.2163,135.8586,113.5507,246.5686,0.00016554,2.347e-05,0.0,0 STARLINK-4262,1 53015U 22076AF  23271.04183214  .00002347  00000-0  16554-3 0  9999,2 53015  53.2163 135.8586 0001909 113.5507 246.5686 15.08832705 68542,6917.903,95.438,541.088,538.447,0.0
53015.0,STARLINK-4262,PAYLOAD,2023-09-28 18:29:28,15.08848933,0.0001782,53.2159,132.5883,101.2281,258.8911,0.00048241,7.4e-05,0.0,0 STARLINK-4262,1 53015U 22076AF  23271.77046848  .00007400  00000-0  48241-3 0  9993,2 53015  53.2159 132.5883 0001782 101.2281 258.8911 15.08848933 68652,6917.853,95.437,540.951,538.485,0.0
53015.0,STARLINK-4262,PAYLOAD,2023-09-28 21:40:14,15.08855381,0.0001804,53.2162,131.9936,99.4546,260.665,0.00058986,9.116e-05,0.0,0 STARLINK-4262,1 53015U 22076AF  23271.90294695  .00009116  00000-0  58986-3 0  9996,2 53015  53.2162 131.9936 0001804  99.4546 260.6650 15.08855381 68202,6917.833,95.437,540.946,538.45,0.0
53015.0,STARLINK-4262,PAYLOAD,2023-09-29 18:20:14,15.08854164,0.0002011,53.2158,128.1274,116.8545,243.2653,0.00018498,2.658e-05,0.0,0 STARLINK-4262,1 53015U 22076AF  23272.76406076  .00002658  00000-0  18498-3 0  9997,2 53015  53.2158 128.1274 0002011 116.8545 243.2653 15.08854164 68808,6917.837,95.437,541.093,538.311,0.0
53015.0,STARLINK-4262,PAYLOAD,2023-09-29 23:06:24,15.088574,0.0001482,53.2159,127.2379,93.7344,266.3817,0.00032793,4.937e-05,0.0,0 STARLINK-4262,1 53015U 22076AF  23272.96278016  .00004937  00000-0  32793-3 0  9996,2 53015  53.2159 127.2379 0001482  93.7344 266.3817 15.08857400 68361,6917.827,95.436,540.717,538.667,0.0
53015.0,STARLINK-4262,PAYLOAD,2023-09-30 07:03:20,15.08839915,0.0001802,53.2163,125.7519,92.9149,267.2049,-0.00014694,-2.626e-05,0.0,0 STARLINK-4262,1 53015U 22076AF  23273.29398336 -.00002626  00000-0 -14694-3 0  9996,2 53015  53.2163 125.7519 0001802  92.9149 267.2049 15.08839915 68880,6917.881,95.438,540.992,538.499,0.0
53015.0,STARLINK-4262,PAYLOAD,2023-09-30 21:21:48,15.08837502,0.0001728,53.2161,123.0776,109.1531,250.9648,-4.0519e-05,-9.33e-06,0.0,0 STARLINK-4262,1 53015U 22076AF  23273.89014432 -.00000933  00000-0 -40519-4 0  9999,2 53015  53.2161 123.0776 0001728 109.1531 250.9648 15.08837502 68500,6917.888,95.438,540.948,538.558,0.0
53015.0,STARLINK-4262,PAYLOAD,2023-10-01 18:01:48,15.0885012,0.0001773,53.2159,119.2113,119.4989,240.6181,0.0002024,2.935e-05,0.0,0 STARLINK-4262,1 53015U 22076AF  23274.75126155  .00002935  00000-0  20240-3 0  9991,2 53015  53.2159 119.2113 0001773 119.4989 240.6181 15.08850120 69106,6917.849,95.437,540.941,538.488,0.0
53015.0,STARLINK-4262,PAYLOAD,2023-10-01 21:12:35,15.08852857,0.0001526,53.2157,118.6164,106.3224,253.7936,0.00040567,6.176e-05,0.0,0 STARLINK-4262,1 53015U 22076AF  23274.88374143  .00006176  00000-0  40567-3 0  9992,2 53015  53.2157 118.6164 0001526 106.3224 253.7936 15.08852857 68657,6917.841,95.437,540.762,538.65,0.0
53015.0,STARLINK-4262,PAYLOAD,2023-10-02 06:44:54,15.08842556,0.0001652,53.2149,116.8284,87.3556,272.7625,0.00014682,2.05e-05,0.0,0 STARLINK-4262,1 53015U 22076AF  23275.28118438  .00002050  00000-0  14682-3 0  9996,2 53015  53.2149 116.8284 0001652  87.3556 272.7625 15.08842556 69187,6917.873,95.437,540.88,538.595,0.0
53015.0,STARLINK-4262,PAYLOAD,2023-10-02 21:03:22,15.08841851,0.0001484,53.215,114.155,86.737,273.3792,0.00015486,2.178e-05,0.0,0 STARLINK-4262,1 53015U 22076AF  23275.87734553  .00002178  00000-0  15486-3 0  9997,2 53015  53.2150 114.1550 0001484  86.7370 273.3792 15.08841851 68803,6917.875,95.437,540.766,538.713,0.0
53015.0,STARLINK-4262,PAYLOAD,2023-10-03 06:35:41,15.08839052,0.0001577,53.215,112.371,84.2351,275.8821,0.00014692,2.051e-05,0.0,0 STARLINK-4262,1 53015U 22076AF  23276.27478699  .00002051  00000-0  14692-3 0  9996,2 53015  53.2150 112.3710 0001577  84.2351 275.8821 15.08839052 69335,6917.883,95.438,540.839,538.657,0.0
53015.0,STARLINK-4262,PAYLOAD,2023-10-03 19:18:46,15.08841092,0.0001593,53.2152,109.9924,81.6094,278.5078,0.00016265,2.302e-05,0.0,0 STARLINK-4262,1 53015U 22076AF  23276.80470793  .00002302  00000-0  16265-3 0  9999,2 53015  53.2152 109.9924 0001593  81.6094 278.5078 15.08841092 68946,6917.877,95.437,540.844,538.64,0.0
53015.0,STARLINK-4262,PAYLOAD,2023-10-04 12:48:01,15.08844235,0.0001695,53.2162,106.7217,81.0656,279.0528,0.00026356,3.909e-05,0.0,0 STARLINK-4262,1 53015U 22076AF  23277.53334821  .00003909  00000-0  26356-3 0  9997,2 53015  53.2162 106.7217 0001695  81.0656 279.0528 15.08844235 69059,6917.867,95.437,540.905,538.56,0.0
53015.0,STARLINK-4262,PAYLOAD,2023-10-04 19:09:33,15.08847408,0.0001581,53.2164,105.5308,85.5633,274.5539,0.00027977,4.168e-05,0.0,0 STARLINK-4262,1 53015U 22076AF  23277.79830595  .00004168  00000-0  27977-3 0  9992,2 53015  53.2164 105.5308 0001581  85.5633 274.5539 15.08847408 69560,6917.858,95.437,540.816,538.629,0.0
53015.0,STARLINK-4262,PAYLOAD,2023-10-05 12:38:48,15.08843459,0.0001798,53.2177,102.261,83.5112,276.6085,0.00012727,1.738e-05,0.0,0 STARLINK-4262,1 53015U 22076AF  23278.52694746  .00001738  00000-0  12727-3 0  9997,2 53015  53.2177 102.2610 0001798  83.5112 276.6085 15.08843459 69206,6917.87,95.437,540.979,538.491,0.0
53015.0,STARLINK-4262,PAYLOAD,2023-10-05 19:00:20,15.08844594,0.0001495,53.2165,101.0716,86.9204,273.1959,0.00011693,1.574e-05,0.0,0 STARLINK-4262,1 53015U 22076AF  23278.79190572  .00001574  00000-0  11693-3 0  9993,2 53015  53.2165 101.0716 0001495  86.9204 273.1959 15.08844594 69719,6917.866,95.437,540.766,538.697,0.0
53015.0,STARLINK-4262,PAYLOAD,2023-10-06 12:29:35,15.08837289,0.0001331,53.217,97.7981,90.7527,269.3617,-3.414e-05,-8.31e-06,0.0,0 STARLINK-4262,1 53015U 22076AF  23279.52054818 -.00000831  00000-0 -34140-4 0  9997,2 53015  53.2170  97.7981 0001331  90.7527 269.3617 15.08837289 69351,6917.889,95.438,540.674,538.833,0.0
53015.0,STARLINK-4262,PAYLOAD,2023-10-06 18:51:07,15.08845638,0.0001345,53.2166,96.6097,86.9681,273.1465,0.00018585,2.672e-05,0.0,0 STARLINK-4262,1 53015U 22076AF  23279.78550634  .00002672  00000-0  18585-3 0  9999,2 53015  53.2166  96.6097 0001345  86.9681 273.1465 15.08845638 69390,6917.863,95.437,540.659,538.798,0.0
53015.0,STARLINK-4262,PAYLOAD,2023-10-07 12:20:22,15.0884074,0.0001381,53.2165,93.3401,94.0867,266.0283,0.00018189,2.608e-05,0.0,0 STARLINK-4262,1 53015U 22076AF  23280.51415012  .00002608  00000-0  18189-3 0  9991,2 53015  53.2165  93.3401 0001381  94.0867 266.0283 15.08840740 69509,6917.878,95.438,540.698,538.788,0.0
53015.0,STARLINK-4262,PAYLOAD,2023-10-07 18:41:55,15.0884364,0.0001321,53.2167,92.1504,92.7216,267.3928,0.00023153,3.399e-05,0.0,0 STARLINK-4262,1 53015U 22076AF  23280.77910935  .00003399  00000-0  23153-3 0  9998,2 53015  53.2167  92.1504 0001321  92.7216 267.3928 15.08843640 70019,6917.869,95.437,540.648,538.82,0.0
53015.0,STARLINK-4262,PAYLOAD,2023-10-08 04:14:14,15.08838006,0.0001339,53.2165,90.3666,93.6415,266.4731,9.5814e-05,1.237e-05,0.0,0 STARLINK-4262,1 53015U 22076AF  23281.17655162  .00001237  00000-0  95814-4 0  9994,2 53015  53.2165  90.3666 0001339  93.6415 266.4731 15.08838006 70074,6917.886,95.438,540.678,538.825,0.0
53015.0,STARLINK-4262,PAYLOAD,2023-10-08 12:11:09,15.08836087,0.0001368,53.2172,88.8802,94.7928,265.322,2.8568e-05,1.67e-06,0.0,0 STARLINK-4262,1 53015U 22076AF  23281.50775339  .00000167  00000-0  28568-4 0  9993,2 53015  53.2172  88.8802 0001368  94.7928 265.3220 15.08836087 69659,6917.892,95.438,540.704,538.811,0.0
53015.0,STARLINK-4262,PAYLOAD,2023-10-08 20:08:05,15.08845188,0.000136,53.2177,87.3925,92.0323,268.0825,0.00016022,2.263e-05,0.0,0 STARLINK-4262,1 53015U 22076AF  23281.83894995  .00002263  00000-0  16022-3 0  9999,2 53015  53.2177  87.3925 0001360  92.0323 268.0825 15.08845188 69705,6917.865,95.437,540.67,538.789,0.0
53015.0,STARLINK-4262,PAYLOAD,2023-10-09 12:01:56,15.08840418,0.0001374,53.2168,84.4181,92.5047,267.6102,8.8245e-05,1.117e-05,0.0,0 STARLINK-4262,1 53015U 22076AF  23282.50135233  .00001117  00000-0  88245-4 0  9991,2 53015  53.2168  84.4181 0001374  92.5047 267.6102 15.08840418 69805,6917.879,95.438,540.695,538.794,0.0
53015.0,STARLINK-4262,PAYLOAD,2023-10-09 18:23:29,15.08849451,0.0001469,53.2175,83.2283,92.1082,268.0078,0.0002159,3.151e-05,0.0,0 STARLINK-4262,1 53015U 22076AF  23282.76630843  .00003151  00000-0  21590-3 0  9995,2 53015  53.2175  83.2283 0001469  92.1082 268.0078 15.08849451 70314,6917.852,95.437,540.733,538.7,0.0
53015.0,STARLINK-4262,PAYLOAD,2023-10-10 10:17:20,15.08843173,0.0001468,53.2179,80.2544,92.4079,267.7081,0.00015783,2.225e-05,0.0,0 STARLINK-4262,1 53015U 22076AF  23283.42871096  .00002225  00000-0  15783-3 0  9994,2 53015  53.2179  80.2544 0001468  92.4079 267.7081 15.08843173 70419,6917.871,95.437,540.751,538.72,0.0
53015.0,STARLINK-4262,PAYLOAD,2023-10-10 18:14:16,15.08847255,0.0001433,53.2173,78.7676,85.2839,274.8317,0.00013375,1.842e-05,0.0,0 STARLINK-4262,1 53015U 22076AF  23283.75990851  .00001842  00000-0  13375-3 0  9990,2 53015  53.2173  78.7676 0001433  85.2839 274.8317 15.08847255 69994,6917.858,95.437,540.715,538.732,0.0
53015.0,STARLINK-4262,PAYLOAD,2023-10-11 10:08:08,15.08835266,0.000151,53.2181,75.7944,89.7991,270.3174,-1.765e-05,-5.69e-06,0.0,0 STARLINK-4262,1 53015U 22076AF  23284.42231671 -.00000569  00000-0 -17650-4 0  9991,2 53015  53.2181  75.7944 0001510  89.7991 270.3174 15.08835266 70568,6917.895,95.438,540.804,538.715,0.0
